{
    "links": {
        "self": "http://www.neowsapp.com/rest/v1/neo/3799248?api_key=iIulBulltgU6a56xZRHN4H3l9WmuAYTsLGpBGhQ2"
    },
    "id": "3799248",
    "neo_reference_id": "3799248",
    "name": "(2018 CD1)",
    "designation": "2018 CD1",
    "nasa_jpl_url": "http://ssd.jpl.nasa.gov/sbdb.cgi?sstr=3799248",
    "absolute_magnitude_h": 23.7,
    "estimated_diameter": {
        "kilometers": {
            "estimated_diameter_min": 0.0483676488,
            "estimated_diameter_max": 0.1081533507
        },
        "meters": {
            "estimated_diameter_min": 48.3676488219,
            "estimated_diameter_max": 108.1533506775
        },
        "miles": {
            "estimated_diameter_min": 0.0300542543,
            "estimated_diameter_max": 0.0672033557
        },
        "feet": {
            "estimated_diameter_min": 158.6865169607,
            "estimated_diameter_max": 354.8338390368
        }
    },
    "is_potentially_hazardous_asteroid": false,
    "close_approach_data": [
        {
            "close_approach_date": "2008-12-13",
            "close_approach_date_full": "2008-Dec-13 03:20",
            "epoch_date_close_approach": 1229138400000,
            "relative_velocity": {
                "kilometers_per_second": "3.4880471738",
                "kilometers_per_hour": "12556.9698258182",
                "miles_per_hour": "7802.4127231591"
            },
            "miss_distance": {
                "astronomical": "1.5207367113",
                "lunar": "591.5665806957",
                "kilometers": "227498972.841284931",
                "miles": "141361306.7126808078"
            },
            "orbiting_body": "Juptr"
        },
        {
            "close_approach_date": "2018-01-14",
            "close_approach_date_full": "2018-Jan-14 16:16",
            "epoch_date_close_approach": 1515946560000,
            "relative_velocity": {
                "kilometers_per_second": "7.2439231822",
                "kilometers_per_hour": "26078.1234560925",
                "miles_per_hour": "16203.9317663703"
            },
            "miss_distance": {
                "astronomical": "0.11617558",
                "lunar": "45.19230062",
                "kilometers": "17379619.3140146",
                "miles": "10799194.67641748"
            },
            "orbiting_body": "Earth"
        },
        {
            "close_approach_date": "2163-08-01",
            "close_approach_date_full": "2163-Aug-01 22:37",
            "epoch_date_close_approach": 6108907020000,
            "relative_velocity": {
                "kilometers_per_second": "3.95316013",
                "kilometers_per_hour": "14231.3764681079",
                "miles_per_hour": "8842.8238948641"
            },
            "miss_distance": {
                "astronomical": "1.8382079459",
                "lunar": "715.0628909551",
                "kilometers": "274991993.323715233",
                "miles": "170872101.2067388954"
            },
            "orbiting_body": "Juptr"
        },
        {
            "close_approach_date": "2174-07-06",
            "close_approach_date_full": "2174-Jul-06 07:36",
            "epoch_date_close_approach": 6453761760000,
            "relative_velocity": {
                "kilometers_per_second": "3.739007889",
                "kilometers_per_hour": "13460.4284004958",
                "miles_per_hour": "8363.7867469636"
            },
            "miss_distance": {
                "astronomical": "1.6406533705",
                "lunar": "638.2141611245",
                "kilometers": "245438249.635120835",
                "miles": "152508256.421444123"
            },
            "orbiting_body": "Juptr"
        }
    ],
    "orbital_data": {
        "orbit_id": "8",
        "orbit_determination_date": "2018-03-23 06:20:49",
        "first_observation_date": "2018-02-05",
        "last_observation_date": "2018-03-22",
        "data_arc_in_days": 45,
        "observations_used": 42,
        "orbit_uncertainty": "6",
        "minimum_orbit_intersection": ".0965626",
        "jupiter_tisserand_invariant": "3.296",
        "epoch_osculation": "2459000.5",
        "eccentricity": ".5535686149310345",
        "semi_major_axis": "2.384426917138798",
        "inclination": "9.013342659940744",
        "ascending_node_longitude": "314.6385884002359",
        "orbital_period": "1344.851868153235",
        "perihelion_distance": "1.064483011213997",
        "perihelion_argument": "154.3251747188192",
        "aphelion_distance": "3.704370823063599",
        "perihelion_time": "2459474.145200918061",
        "mean_anomaly": "233.2111124144465",
        "mean_motion": ".2676874743791344",
        "equinox": "J2000",
        "orbit_class": {
            "orbit_class_type": "AMO",
            "orbit_class_description": "Near-Earth asteroid orbits similar to that of 1221 Amor",
            "orbit_class_range": "1.017 AU < q (perihelion) < 1.3 AU"
        }
    },
    "is_sentry_object": false
}